[{"OBJECT_NAME":"STARLINK-30830","OBJECT_ID":"2023-167V","EPOCH":"2026-03-08T06:41:49.996896","MEAN_MOTION":15.26745059,"ECCENTRICITY":0.0002253,"INCLINATION":43.0047,"RA_OF_ASC_NODE":150.9804,"ARG_OF_PERICENTER":291.0825,"MEAN_ANOMALY":68.9786,"EPHEMERIS_TYPE":0,"CLASSIFICATION_TYPE":"U","NORAD_CAT_ID":58194,"ELEMENT_SET_NO":999,"REV_AT_EPOCH":13077,"BSTAR":-2.3032986e-5,"MEAN_MOTION_DOT":-8.78e-6,"MEAN_MOTION_DDOT":0},{"OBJECT_NAME":"OBJECT C","OBJECT_ID":"2025-012C","EPOCH":"2026-03-09T23:21:30.920256","MEAN_MOTION":15.25321174,"ECCENTRICITY":0.00067398,"INCLINATION":97.4321,"RA_OF_ASC_NODE":145.036,"ARG_OF_PERICENTER":249.6621,"MEAN_ANOMALY":110.3894,"EPHEMERIS_TYPE":0,"CLASSIFICATION_TYPE":"U","NORAD_CAT_ID":62727,"ELEMENT_SET_NO":999,"REV_AT_EPOCH":6325,"BSTAR":0.0005750193,"MEAN_MOTION_DOT":0.00014438,"MEAN_MOTION_DDOT":0}]
